{
  "norad_id": 63725,
  "name": "KUIPER-00009",
  "history": [
    {
      "epoch": "2026-03-28T12:34:57.048096Z",
      "apogee_km": 622.3576002856726,
      "perigee_km": 614.4773809628823,
      "latitude_deg": -7.014226454675221e-06,
      "longitude_deg": 8.343812889125866,
      "height_km": 622.7762083189878,
      "semi_major_axis_km": 6996.554490624277,
      "eccentricity": 0.00056315,
      "inclination_deg": 51.9043,
      "raan_deg": 23.025,
      "arg_perigee_deg": 156.5056,
      "mean_anomaly_deg": 203.6166,
      "mean_motion_rev_day": 14.83462016
    },
    {
      "epoch": "2026-03-29T01:31:02.249472Z",
      "apogee_km": 622.3280751817265,
      "perigee_km": 614.4583779828672,
      "latitude_deg": -3.607702699345431e-05,
      "longitude_deg": 171.3943052114637,
      "height_km": 622.7914176173747,
      "semi_major_axis_km": 6996.530226582297,
      "eccentricity": 0.0005624,
      "inclination_deg": 51.9041,
      "raan_deg": 20.6284,
      "arg_perigee_deg": 158.1718,
      "mean_anomaly_deg": 201.9486,
      "mean_motion_rev_day": 14.83469733
    },
    {
      "epoch": "2026-03-30T00:09:10.355904Z",
      "apogee_km": 622.3087345175227,
      "perigee_km": 614.3239621691928,
      "latitude_deg": 4.119171647337269e-05,
      "longitude_deg": -173.26132130601184,
      "height_km": 622.8204373264317,
      "semi_major_axis_km": 6996.453348343358,
      "eccentricity": 0.00057063,
      "inclination_deg": 51.9049,
      "raan_deg": 16.4361,
      "arg_perigee_deg": 160.2828,
      "mean_anomaly_deg": 199.8358,
      "mean_motion_rev_day": 14.83494184
    },
    {
      "epoch": "2026-03-30T19:33:16.472736Z",
      "apogee_km": 622.2529896335191,
      "perigee_km": 614.2769514590582,
      "latitude_deg": 2.6931615112427776e-06,
      "longitude_deg": -108.67823665913531,
      "height_km": 622.8227764581368,
      "semi_major_axis_km": 6996.401970546289,
      "eccentricity": 0.00057001,
      "inclination_deg": 51.9048,
      "raan_deg": 12.8415,
      "arg_perigee_deg": 162.8976,
      "mean_anomaly_deg": 197.2181,
      "mean_motion_rev_day": 14.83510525
    }
  ]
}